SL-4 R/B                
1 39679U 14021B   26003.98302331  .00016403  00000+0  38221-3 0  9994
2 39679  51.6093 292.4519 0100055 226.6980 132.5627 15.37276044646311
ALOS-2                  
1 39766U 14029A   26004.06189435  .00005946  00000+0  80247-3 0  9992
2 39766  97.9220 103.5897 0001408 100.5609 259.5761 14.79465808627315
YAOGAN-29               
1 41038U 15069A   26004.01944843  .00000806  00000+0  10606-3 0  9991
2 41038  98.0200  32.2608 0001602 147.9355 212.1956 14.82911764546296
ASTRO-H (HITOMI)        
1 41337U 16012A   26003.51240634  .00005378  00000+0  32121-3 0  9998
2 41337  31.0013  56.9916 0009570  37.7820 322.3489 15.09524854542377
HXMT (HUIYAN)           
1 42758U 17034A   26003.92314584  .00009875  00000+0  50166-3 0  9997
2 42758  43.0156  16.5039 0032406 187.6788 172.3567 15.16563561472701
CZ-2C R/B               
1 43521U 18054D   26003.77024399  .00156164  00000+0  80476-3 0  9995
2 43521  35.1340  30.9503 0011958   4.3777 355.7061 15.79607845418535
SAOCOM 1A               
1 43641U 18076A   26003.95039667  .00000618  00000+0  84172-4 0  9996
2 43641  97.8841 193.0488 0001384  83.5762 276.5609 14.82164062391773
H-2A R/B                
1 43682U 18084L   26003.81577334  .00028431  00000+0  74408-3 0  9996
2 43682  98.8758 207.4868 0025975 248.6954 111.1513 15.38359094395794
SAOCOM 1B               
1 46265U 20059A   26003.98162309  .00000777  00000+0  10410-3 0  9997
2 46265  97.8837 192.1792 0001432  83.0388 277.0988 14.82168377289162
CSS (TIANHE)            
1 48274U 21035A   26003.93445481  .00023203  00000+0  27991-3 0  9995
2 48274  41.4655 241.8722 0010554 214.7507 145.2643 15.60151347267495
CZ-2C R/B               
1 52794U 22058K   26003.15873071  .00042541  00000+0  72489-3 0  9995
2 52794  50.1906 294.2242 0043774 286.2640  73.3516 15.49814438199953
