CCSDS_OMM_VERS = 2.0
CREATION_DATE  = 
ORIGINATOR     = 

OBJECT_NAME    = SL-4 R/B
OBJECT_ID      = 2014-021B
CENTER_NAME    = EARTH
REF_FRAME      = TEME
TIME_SYSTEM    = UTC
MEAN_ELEMENT_THEORY = SGP/SGP4

EPOCH          = 2026-01-03T23:35:33.213984
MEAN_MOTION    = 15.37276044
ECCENTRICITY   = .01000556
INCLINATION    = 51.6093
RA_OF_ASC_NODE = 292.4519
ARG_OF_PERICENTER = 226.6980
MEAN_ANOMALY   = 132.5627

EPHEMERIS_TYPE = 0
CLASSIFICATION_TYPE = U
NORAD_CAT_ID   = 39679
ELEMENT_SET_NO = 999
REV_AT_EPOCH   = 64631
BSTAR          = .38221332E-3
MEAN_MOTION_DOT = .16403E-3
MEAN_MOTION_DDOT = 0

CCSDS_OMM_VERS = 2.0
CREATION_DATE  = 
ORIGINATOR     = 

OBJECT_NAME    = ALOS-2
OBJECT_ID      = 2014-029A
CENTER_NAME    = EARTH
REF_FRAME      = TEME
TIME_SYSTEM    = UTC
MEAN_ELEMENT_THEORY = SGP/SGP4

EPOCH          = 2026-01-04T01:29:07.671840
MEAN_MOTION    = 14.79465808
ECCENTRICITY   = .0001408
INCLINATION    = 97.9220
RA_OF_ASC_NODE = 103.5897
ARG_OF_PERICENTER = 100.5609
MEAN_ANOMALY   = 259.5761

EPHEMERIS_TYPE = 0
CLASSIFICATION_TYPE = U
NORAD_CAT_ID   = 39766
ELEMENT_SET_NO = 999
REV_AT_EPOCH   = 62731
BSTAR          = .80247E-3
MEAN_MOTION_DOT = .5946E-4
MEAN_MOTION_DDOT = 0

CCSDS_OMM_VERS = 2.0
CREATION_DATE  = 
ORIGINATOR     = 

OBJECT_NAME    = YAOGAN-29
OBJECT_ID      = 2015-069A
CENTER_NAME    = EARTH
REF_FRAME      = TEME
TIME_SYSTEM    = UTC
MEAN_ELEMENT_THEORY = SGP/SGP4

EPOCH          = 2026-01-04T00:28:00.344352
MEAN_MOTION    = 14.82911764
ECCENTRICITY   = .00016027
INCLINATION    = 98.0200
RA_OF_ASC_NODE = 32.2608
ARG_OF_PERICENTER = 147.9355
MEAN_ANOMALY   = 212.1956

EPHEMERIS_TYPE = 0
CLASSIFICATION_TYPE = U
NORAD_CAT_ID   = 41038
ELEMENT_SET_NO = 999
REV_AT_EPOCH   = 54629
BSTAR          = .10606482E-3
MEAN_MOTION_DOT = .806E-5
MEAN_MOTION_DDOT = 0

CCSDS_OMM_VERS = 2.0
CREATION_DATE  = 
ORIGINATOR     = 

OBJECT_NAME    = ASTRO-H (HITOMI)
OBJECT_ID      = 2016-012A
CENTER_NAME    = EARTH
REF_FRAME      = TEME
TIME_SYSTEM    = UTC
MEAN_ELEMENT_THEORY = SGP/SGP4

EPOCH          = 2026-01-03T12:17:51.907776
MEAN_MOTION    = 15.09524854
ECCENTRICITY   = .00095702
INCLINATION    = 31.0013
RA_OF_ASC_NODE = 56.9916
ARG_OF_PERICENTER = 37.7820
MEAN_ANOMALY   = 322.3489

EPHEMERIS_TYPE = 0
CLASSIFICATION_TYPE = U
NORAD_CAT_ID   = 41337
ELEMENT_SET_NO = 999
REV_AT_EPOCH   = 54237
BSTAR          = .32120913E-3
MEAN_MOTION_DOT = .5378E-4
MEAN_MOTION_DDOT = 0

CCSDS_OMM_VERS = 2.0
CREATION_DATE  = 
ORIGINATOR     = 

OBJECT_NAME    = HXMT (HUIYAN)
OBJECT_ID      = 2017-034A
CENTER_NAME    = EARTH
REF_FRAME      = TEME
TIME_SYSTEM    = UTC
MEAN_ELEMENT_THEORY = SGP/SGP4

EPOCH          = 2026-01-03T22:09:19.800576
MEAN_MOTION    = 15.16563561
ECCENTRICITY   = .00324067
INCLINATION    = 43.0156
RA_OF_ASC_NODE = 16.5039
ARG_OF_PERICENTER = 187.6788
MEAN_ANOMALY   = 172.3567

EPHEMERIS_TYPE = 0
CLASSIFICATION_TYPE = U
NORAD_CAT_ID   = 42758
ELEMENT_SET_NO = 999
REV_AT_EPOCH   = 47270
BSTAR          = .50166195E-3
MEAN_MOTION_DOT = .9875E-4
MEAN_MOTION_DDOT = 0

CCSDS_OMM_VERS = 2.0
CREATION_DATE  = 
ORIGINATOR     = 

OBJECT_NAME    = CZ-2C R/B
OBJECT_ID      = 2018-054D
CENTER_NAME    = EARTH
REF_FRAME      = TEME
TIME_SYSTEM    = UTC
MEAN_ELEMENT_THEORY = SGP/SGP4

EPOCH          = 2026-01-03T18:29:09.080736
MEAN_MOTION    = 15.79607845
ECCENTRICITY   = .00119584
INCLINATION    = 35.1340
RA_OF_ASC_NODE = 30.9503
ARG_OF_PERICENTER = 4.3777
MEAN_ANOMALY   = 355.7061

EPHEMERIS_TYPE = 0
CLASSIFICATION_TYPE = U
NORAD_CAT_ID   = 43521
ELEMENT_SET_NO = 999
REV_AT_EPOCH   = 41853
BSTAR          = .80476128E-3
MEAN_MOTION_DOT = .156164E-2
MEAN_MOTION_DDOT = 0

CCSDS_OMM_VERS = 2.0
CREATION_DATE  = 
ORIGINATOR     = 

OBJECT_NAME    = SAOCOM 1A
OBJECT_ID      = 2018-076A
CENTER_NAME    = EARTH
REF_FRAME      = TEME
TIME_SYSTEM    = UTC
MEAN_ELEMENT_THEORY = SGP/SGP4

EPOCH          = 2026-01-03T22:48:34.272288
MEAN_MOTION    = 14.82164062
ECCENTRICITY   = .00013842
INCLINATION    = 97.8841
RA_OF_ASC_NODE = 193.0488
ARG_OF_PERICENTER = 83.5762
MEAN_ANOMALY   = 276.5609

EPHEMERIS_TYPE = 0
CLASSIFICATION_TYPE = U
NORAD_CAT_ID   = 43641
ELEMENT_SET_NO = 999
REV_AT_EPOCH   = 39177
BSTAR          = .84171867E-4
MEAN_MOTION_DOT = .618E-5
MEAN_MOTION_DDOT = 0

CCSDS_OMM_VERS = 2.0
CREATION_DATE  = 
ORIGINATOR     = 

OBJECT_NAME    = H-2A R/B
OBJECT_ID      = 2018-084L
CENTER_NAME    = EARTH
REF_FRAME      = TEME
TIME_SYSTEM    = UTC
MEAN_ELEMENT_THEORY = SGP/SGP4

EPOCH          = 2026-01-03T19:34:42.816576
MEAN_MOTION    = 15.38359094
ECCENTRICITY   = .00259754
INCLINATION    = 98.8758
RA_OF_ASC_NODE = 207.4868
ARG_OF_PERICENTER = 248.6954
MEAN_ANOMALY   = 111.1513

EPHEMERIS_TYPE = 0
CLASSIFICATION_TYPE = U
NORAD_CAT_ID   = 43682
ELEMENT_SET_NO = 999
REV_AT_EPOCH   = 39579
BSTAR          = .74408404E-3
MEAN_MOTION_DOT = .28431E-3
MEAN_MOTION_DDOT = 0

CCSDS_OMM_VERS = 2.0
CREATION_DATE  = 
ORIGINATOR     = 

OBJECT_NAME    = SAOCOM 1B
OBJECT_ID      = 2020-059A
CENTER_NAME    = EARTH
REF_FRAME      = TEME
TIME_SYSTEM    = UTC
MEAN_ELEMENT_THEORY = SGP/SGP4

EPOCH          = 2026-01-03T23:33:32.234976
MEAN_MOTION    = 14.82168377
ECCENTRICITY   = .00014322
INCLINATION    = 97.8837
RA_OF_ASC_NODE = 192.1792
ARG_OF_PERICENTER = 83.0388
MEAN_ANOMALY   = 277.0988

EPHEMERIS_TYPE = 0
CLASSIFICATION_TYPE = U
NORAD_CAT_ID   = 46265
ELEMENT_SET_NO = 999
REV_AT_EPOCH   = 28916
BSTAR          = .10410347E-3
MEAN_MOTION_DOT = .777E-5
MEAN_MOTION_DDOT = 0

CCSDS_OMM_VERS = 2.0
CREATION_DATE  = 
ORIGINATOR     = 

OBJECT_NAME    = CSS (TIANHE)
OBJECT_ID      = 2021-035A
CENTER_NAME    = EARTH
REF_FRAME      = TEME
TIME_SYSTEM    = UTC
MEAN_ELEMENT_THEORY = SGP/SGP4

EPOCH          = 2026-01-03T22:25:36.895584
MEAN_MOTION    = 15.60151347
ECCENTRICITY   = .00105545
INCLINATION    = 41.4655
RA_OF_ASC_NODE = 241.8722
ARG_OF_PERICENTER = 214.7507
MEAN_ANOMALY   = 145.2643

EPHEMERIS_TYPE = 0
CLASSIFICATION_TYPE = U
NORAD_CAT_ID   = 48274
ELEMENT_SET_NO = 999
REV_AT_EPOCH   = 26749
BSTAR          = .27990901E-3
MEAN_MOTION_DOT = .23203E-3
MEAN_MOTION_DDOT = 0

CCSDS_OMM_VERS = 2.0
CREATION_DATE  = 
ORIGINATOR     = 

OBJECT_NAME    = CZ-2C R/B
OBJECT_ID      = 2022-058K
CENTER_NAME    = EARTH
REF_FRAME      = TEME
TIME_SYSTEM    = UTC
MEAN_ELEMENT_THEORY = SGP/SGP4

EPOCH          = 2026-01-03T03:48:34.333344
MEAN_MOTION    = 15.49814438
ECCENTRICITY   = .00437744
INCLINATION    = 50.1906
RA_OF_ASC_NODE = 294.2242
ARG_OF_PERICENTER = 286.2640
MEAN_ANOMALY   = 73.3516

EPHEMERIS_TYPE = 0
CLASSIFICATION_TYPE = U
NORAD_CAT_ID   = 52794
ELEMENT_SET_NO = 999
REV_AT_EPOCH   = 19995
BSTAR          = .72488771E-3
MEAN_MOTION_DOT = .42541E-3
MEAN_MOTION_DDOT = 0

